CCSDS_OMM_VERS = 2.0
CREATION_DATE  = 
ORIGINATOR     = 

OBJECT_NAME    = SL-14 R/B
OBJECT_ID      = 1988-001B
CENTER_NAME    = EARTH
REF_FRAME      = TEME
TIME_SYSTEM    = UTC
MEAN_ELEMENT_THEORY = SGP/SGP4

EPOCH          = 2025-11-28T15:10:35.408064
MEAN_MOTION    = 14.85399938
ECCENTRICITY   = .00172277
INCLINATION    = 82.5119
RA_OF_ASC_NODE = 290.4171
ARG_OF_PERICENTER = 208.1428
MEAN_ANOMALY   = 151.8859

EPHEMERIS_TYPE = 0
CLASSIFICATION_TYPE = U
NORAD_CAT_ID   = 18749
ELEMENT_SET_NO = 999
REV_AT_EPOCH   = 2702
BSTAR          = .66438715E-4
MEAN_MOTION_DOT = .597E-5
MEAN_MOTION_DDOT = 0

CCSDS_OMM_VERS = 2.0
CREATION_DATE  = 
ORIGINATOR     = 

OBJECT_NAME    = COSMOS 1933
OBJECT_ID      = 1988-020A
CENTER_NAME    = EARTH
REF_FRAME      = TEME
TIME_SYSTEM    = UTC
MEAN_ELEMENT_THEORY = SGP/SGP4

EPOCH          = 2025-11-28T13:42:42.907680
MEAN_MOTION    = 15.16937746
ECCENTRICITY   = .00044319
INCLINATION    = 82.5141
RA_OF_ASC_NODE = 350.8776
ARG_OF_PERICENTER = 169.3069
MEAN_ANOMALY   = 190.8259

EPHEMERIS_TYPE = 0
CLASSIFICATION_TYPE = U
NORAD_CAT_ID   = 18958
ELEMENT_SET_NO = 999
REV_AT_EPOCH   = 3489
BSTAR          = .18553352E-3
MEAN_MOTION_DOT = .3689E-4
MEAN_MOTION_DDOT = 0

CCSDS_OMM_VERS = 2.0
CREATION_DATE  = 
ORIGINATOR     = 

OBJECT_NAME    = SL-3 R/B
OBJECT_ID      = 1988-032B
CENTER_NAME    = EARTH
REF_FRAME      = TEME
TIME_SYSTEM    = UTC
MEAN_ELEMENT_THEORY = SGP/SGP4

EPOCH          = 2025-11-28T15:05:53.573856
MEAN_MOTION    = 15.18525512
ECCENTRICITY   = .00253088
INCLINATION    = 97.5072
RA_OF_ASC_NODE = 311.4509
ARG_OF_PERICENTER = 223.4074
MEAN_ANOMALY   = 136.5168

EPHEMERIS_TYPE = 0
CLASSIFICATION_TYPE = U
NORAD_CAT_ID   = 19046
ELEMENT_SET_NO = 999
REV_AT_EPOCH   = 3676
BSTAR          = .28980253E-3
MEAN_MOTION_DOT = .5962E-4
MEAN_MOTION_DDOT = 0

CCSDS_OMM_VERS = 2.0
CREATION_DATE  = 
ORIGINATOR     = 

OBJECT_NAME    = SL-16 R/B
OBJECT_ID      = 1988-039B
CENTER_NAME    = EARTH
REF_FRAME      = TEME
TIME_SYSTEM    = UTC
MEAN_ELEMENT_THEORY = SGP/SGP4

EPOCH          = 2025-11-28T14:00:36.388800
MEAN_MOTION    = 14.19592928
ECCENTRICITY   = .00202599
INCLINATION    = 71.0146
RA_OF_ASC_NODE = 282.3291
ARG_OF_PERICENTER = 139.9363
MEAN_ANOMALY   = 220.3261

EPHEMERIS_TYPE = 0
CLASSIFICATION_TYPE = U
NORAD_CAT_ID   = 19120
ELEMENT_SET_NO = 999
REV_AT_EPOCH   = 94403
BSTAR          = -.21801022E-4
MEAN_MOTION_DOT = -.94E-6
MEAN_MOTION_DDOT = 0

CCSDS_OMM_VERS = 2.0
CREATION_DATE  = 
ORIGINATOR     = 

OBJECT_NAME    = COSMOS 1953
OBJECT_ID      = 1988-050A
CENTER_NAME    = EARTH
REF_FRAME      = TEME
TIME_SYSTEM    = UTC
MEAN_ELEMENT_THEORY = SGP/SGP4

EPOCH          = 2025-11-28T13:09:19.435104
MEAN_MOTION    = 15.26684726
ECCENTRICITY   = .00136509
INCLINATION    = 82.5085
RA_OF_ASC_NODE = 259.8177
ARG_OF_PERICENTER = 114.5256
MEAN_ANOMALY   = 245.7408

EPHEMERIS_TYPE = 0
CLASSIFICATION_TYPE = U
NORAD_CAT_ID   = 19210
ELEMENT_SET_NO = 999
REV_AT_EPOCH   = 2234
BSTAR          = .26074477E-3
MEAN_MOTION_DOT = .6893E-4
MEAN_MOTION_DDOT = 0

CCSDS_OMM_VERS = 2.0
CREATION_DATE  = 
ORIGINATOR     = 

OBJECT_NAME    = SL-8 R/B
OBJECT_ID      = 1988-053B
CENTER_NAME    = EARTH
REF_FRAME      = TEME
TIME_SYSTEM    = UTC
MEAN_ELEMENT_THEORY = SGP/SGP4

EPOCH          = 2025-11-28T15:44:48.794784
MEAN_MOTION    = 14.38845704
ECCENTRICITY   = .00193888
INCLINATION    = 74.0471
RA_OF_ASC_NODE = 298.6763
ARG_OF_PERICENTER = 147.7144
MEAN_ANOMALY   = 24.7539

EPHEMERIS_TYPE = 0
CLASSIFICATION_TYPE = U
NORAD_CAT_ID   = 19257
ELEMENT_SET_NO = 999
REV_AT_EPOCH   = 96206
BSTAR          = .926227E-4
MEAN_MOTION_DOT = .259E-5
MEAN_MOTION_DDOT = 0

CCSDS_OMM_VERS = 2.0
CREATION_DATE  = 
ORIGINATOR     = 

OBJECT_NAME    = COSMOS 1975
OBJECT_ID      = 1988-093A
CENTER_NAME    = EARTH
REF_FRAME      = TEME
TIME_SYSTEM    = UTC
MEAN_ELEMENT_THEORY = SGP/SGP4

EPOCH          = 2025-11-28T10:09:37.066752
MEAN_MOTION    = 15.26154206
ECCENTRICITY   = .00117632
INCLINATION    = 82.5212
RA_OF_ASC_NODE = 219.1560
ARG_OF_PERICENTER = 158.2577
MEAN_ANOMALY   = 201.9163

EPHEMERIS_TYPE = 0
CLASSIFICATION_TYPE = U
NORAD_CAT_ID   = 19573
ELEMENT_SET_NO = 999
REV_AT_EPOCH   = 395
BSTAR          = .3575485E-3
MEAN_MOTION_DOT = .9285E-4
MEAN_MOTION_DDOT = 0

CCSDS_OMM_VERS = 2.0
CREATION_DATE  = 
ORIGINATOR     = 

OBJECT_NAME    = SL-14 R/B
OBJECT_ID      = 1988-093B
CENTER_NAME    = EARTH
REF_FRAME      = TEME
TIME_SYSTEM    = UTC
MEAN_ELEMENT_THEORY = SGP/SGP4

EPOCH          = 2025-11-28T13:32:05.516736
MEAN_MOTION    = 14.85525398
ECCENTRICITY   = .00211463
INCLINATION    = 82.5293
RA_OF_ASC_NODE = 136.9704
ARG_OF_PERICENTER = 16.9247
MEAN_ANOMALY   = 50.8516

EPHEMERIS_TYPE = 0
CLASSIFICATION_TYPE = U
NORAD_CAT_ID   = 19574
ELEMENT_SET_NO = 999
REV_AT_EPOCH   = 98602
BSTAR          = .62372137E-4
MEAN_MOTION_DOT = .565E-5
MEAN_MOTION_DDOT = 0

CCSDS_OMM_VERS = 2.0
CREATION_DATE  = 
ORIGINATOR     = 

OBJECT_NAME    = SL-16 R/B
OBJECT_ID      = 1988-102B
CENTER_NAME    = EARTH
REF_FRAME      = TEME
TIME_SYSTEM    = UTC
MEAN_ELEMENT_THEORY = SGP/SGP4

EPOCH          = 2025-11-28T13:02:12.206112
MEAN_MOTION    = 14.16136819
ECCENTRICITY   = .00137219
INCLINATION    = 71.0009
RA_OF_ASC_NODE = 4.3153
ARG_OF_PERICENTER = 174.7273
MEAN_ANOMALY   = 185.3998

EPHEMERIS_TYPE = 0
CLASSIFICATION_TYPE = U
NORAD_CAT_ID   = 19650
ELEMENT_SET_NO = 999
REV_AT_EPOCH   = 91257
BSTAR          = .68311539E-4
MEAN_MOTION_DOT = .87E-6
MEAN_MOTION_DDOT = 0

CCSDS_OMM_VERS = 2.0
CREATION_DATE  = 
ORIGINATOR     = 

OBJECT_NAME    = INTERCOSMOS 24
OBJECT_ID      = 1989-080A
CENTER_NAME    = EARTH
REF_FRAME      = TEME
TIME_SYSTEM    = UTC
MEAN_ELEMENT_THEORY = SGP/SGP4

EPOCH          = 2025-11-28T14:26:51.978336
MEAN_MOTION    = 12.59401355
ECCENTRICITY   = .1188623
INCLINATION    = 82.6047
RA_OF_ASC_NODE = 170.1454
ARG_OF_PERICENTER = 167.3079
MEAN_ANOMALY   = 196.0982

EPHEMERIS_TYPE = 0
CLASSIFICATION_TYPE = U
NORAD_CAT_ID   = 20261
ELEMENT_SET_NO = 999
REV_AT_EPOCH   = 65407
BSTAR          = .2373153E-3
MEAN_MOTION_DOT = .824E-5
MEAN_MOTION_DDOT = 0

CCSDS_OMM_VERS = 2.0
CREATION_DATE  = 
ORIGINATOR     = 

OBJECT_NAME    = SL-14 R/B
OBJECT_ID      = 1989-080C
CENTER_NAME    = EARTH
REF_FRAME      = TEME
TIME_SYSTEM    = UTC
MEAN_ELEMENT_THEORY = SGP/SGP4

EPOCH          = 2025-11-28T12:04:21.337536
MEAN_MOTION    = 12.50395572
ECCENTRICITY   = .12308996
INCLINATION    = 82.5941
RA_OF_ASC_NODE = 238.1570
ARG_OF_PERICENTER = 56.1181
MEAN_ANOMALY   = 315.0941

EPHEMERIS_TYPE = 0
CLASSIFICATION_TYPE = U
NORAD_CAT_ID   = 20262
ELEMENT_SET_NO = 999
REV_AT_EPOCH   = 64750
BSTAR          = .12746135E-3
MEAN_MOTION_DOT = .45E-5
MEAN_MOTION_DDOT = 0

CCSDS_OMM_VERS = 2.0
CREATION_DATE  = 
ORIGINATOR     = 

OBJECT_NAME    = DELTA 1 R/B
OBJECT_ID      = 1989-089B
CENTER_NAME    = EARTH
REF_FRAME      = TEME
TIME_SYSTEM    = UTC
MEAN_ELEMENT_THEORY = SGP/SGP4

EPOCH          = 2025-11-28T15:16:57.289152
MEAN_MOTION    = 14.50554357
ECCENTRICITY   = .00707274
INCLINATION    = 97.0762
RA_OF_ASC_NODE = 191.1086
ARG_OF_PERICENTER = 82.0266
MEAN_ANOMALY   = 278.8950

EPHEMERIS_TYPE = 0
CLASSIFICATION_TYPE = U
NORAD_CAT_ID   = 20323
ELEMENT_SET_NO = 999
REV_AT_EPOCH   = 88108
BSTAR          = .10473199E-3
MEAN_MOTION_DOT = .389E-5
MEAN_MOTION_DDOT = 0

